[{"OBJECT_NAME":"STARLINK-31013","OBJECT_ID":"2023-191U","EPOCH":"2026-03-09T10:31:58.982304","MEAN_MOTION":15.05312624,"ECCENTRICITY":9.596e-5,"INCLINATION":43.0005,"RA_OF_ASC_NODE":106.4881,"ARG_OF_PERICENTER":8.2742,"MEAN_ANOMALY":351.8118,"EPHEMERIS_TYPE":0,"CLASSIFICATION_TYPE":"U","NORAD_CAT_ID":58526,"ELEMENT_SET_NO":999,"REV_AT_EPOCH":12541,"BSTAR":0.0019974711,"MEAN_MOTION_DOT":0.00028971,"MEAN_MOTION_DDOT":0},{"OBJECT_NAME":"ISTSAT-1","OBJECT_ID":"2024-128D","EPOCH":"2026-03-09T22:00:43.506144","MEAN_MOTION":15.10231455,"ECCENTRICITY":0.00491528,"INCLINATION":61.9882,"RA_OF_ASC_NODE":196.777,"ARG_OF_PERICENTER":111.8391,"MEAN_ANOMALY":248.7942,"EPHEMERIS_TYPE":0,"CLASSIFICATION_TYPE":"U","NORAD_CAT_ID":60238,"ELEMENT_SET_NO":999,"REV_AT_EPOCH":9146,"BSTAR":0.00064802971,"MEAN_MOTION_DOT":0.0001075,"MEAN_MOTION_DDOT":0}]
